NAVSTAR 77 (USA 289)    
1 43873U 18109A   24049.66630802 -.00000051  00000+0  00000+0 0  9999
2 43873  55.2495 125.7507 0028820 194.1551 337.7803  2.00574111 38036
